LEMUR-2-ANDIS           
1 42838U 17042P   26068.55941107  .00023598  00000+0  79875-3 0  9998
2 42838  97.3659 249.7950 0009101   4.3248 355.8070 15.30557934473198
STARLINK-30540          
1 58002U 23153M   26067.99805799 -.00004302  00000+0 -15087-3 0  9990
2 58002  43.0033  70.6829 0000734 215.1985 144.8818 15.26723101134692
